[{"OBJECT_NAME":"STARLINK-30777","OBJECT_ID":"2023-171D","EPOCH":"2026-03-09T22:00:01.999584","MEAN_MOTION":15.23802724,"ECCENTRICITY":0.00016288,"INCLINATION":43.0003,"RA_OF_ASC_NODE":284.1432,"ARG_OF_PERICENTER":284.3202,"MEAN_ANOMALY":197.2089,"EPHEMERIS_TYPE":0,"CLASSIFICATION_TYPE":"U","NORAD_CAT_ID":58233,"ELEMENT_SET_NO":999,"REV_AT_EPOCH":578,"BSTAR":0.045327207,"MEAN_MOTION_DOT":0.01214255,"MEAN_MOTION_DDOT":0},{"OBJECT_NAME":"TRANSPORTER-12 OBJECT G","OBJECT_ID":"2025-009G","EPOCH":"2026-03-09T17:57:00.262080","MEAN_MOTION":15.24410621,"ECCENTRICITY":0.00052883,"INCLINATION":97.3986,"RA_OF_ASC_NODE":149.8908,"ARG_OF_PERICENTER":330.1708,"MEAN_ANOMALY":29.9228,"EPHEMERIS_TYPE":0,"CLASSIFICATION_TYPE":"U","NORAD_CAT_ID":62615,"ELEMENT_SET_NO":999,"REV_AT_EPOCH":6364,"BSTAR":0.00034372065,"MEAN_MOTION_DOT":8.362e-5,"MEAN_MOTION_DDOT":0}]
